NORAD_CAT_ID,OBJECT_NAME,OBJECT_TYPE,EPOCH,MEAN_MOTION,ECCENTRICITY,INCLINATION,RA_OF_ASC_NODE,ARG_OF_PERICENTER,MEAN_ANOMALY,BSTAR,MEAN_MOTION_DOT,MEAN_MOTION_DDOT,TLE_LINE0,TLE_LINE1,TLE_LINE2,SEMIMAJOR_AXIS,PERIOD,APOGEE,PERIGEE,DECAYED
52334.0,STARLINK-3880,PAYLOAD,2022-07-26 22:00:00,15.0882897,0.0001924,53.217,22.7944,44.462,103.6447,0.0028225999999999,0.00044907,0.0,0 STARLINK-3880,1 52334U 22045D   22207.91667824  .00044907  00000-0  28226-2 0  9992,2 52334  53.2170  22.7944 0001924  44.4620 103.6447 15.08828970  1308,6917.9140000000025,95.438,541.11,538.448,0.0
52334.0,STARLINK-3880,PAYLOAD,2022-07-27 14:00:01,15.08849072,0.0001761,53.2175,19.8001,48.8117,122.4714,-0.0011001,-0.00017758,0.0,0 STARLINK-3880,1 52334U 22045D   22208.58334491 -.00017758  00000-0 -11001-2 0  9996,2 52334  53.2175  19.8001 0001761  48.8117 122.4714 15.08849072  1304,6917.853,95.437,540.936,538.499,0.0
52334.0,STARLINK-3880,PAYLOAD,2022-07-27 16:00:00,15.08847773,0.0001811999999999,53.2175,19.4257,46.76300000000001,217.4208,-0.0012896,-0.00020758,0.0,0 STARLINK-3880,1 52334U 22045D   22208.66667824 -.00020758  00000-0 -12896-2 0  9991,2 52334  53.2175  19.4257 0001812  46.7630 217.4208 15.08847773 16201,6917.857,95.437,540.975,538.4680000000002,0.0
52334.0,STARLINK-3880,PAYLOAD,2022-07-27 22:00:00,15.08815943,0.0001918,53.2175,18.305,42.8468,140.0412,0.0032844,0.00052337,0.0,0 STARLINK-3880,1 52334U 22045D   22208.91667824  .00052337  00000-0  32844-2 0  9990,2 52334  53.2175  18.3050 0001918  42.8468 140.0412 15.08815943  1300,6917.954000000002,95.439,541.146,538.492,0.0
52334.0,STARLINK-3880,PAYLOAD,2022-07-28 08:00:01,15.08823826,0.0001713,53.2176,16.4325,48.5263,238.8599,0.0029581,0.00047084,0.0,0 STARLINK-3880,1 52334U 22045D   22209.33334491  .00047084  00000-0  29581-2 0  9995,2 52334  53.2176  16.4325 0001713  48.5263 238.8599 15.08823826 16301,6917.93,95.439,540.98,538.61,0.0
52334.0,STARLINK-3880,PAYLOAD,2022-07-28 14:00:01,15.08877719,0.0001745,53.2179,15.3109,48.1812,157.8931,-0.0041068999999999,-0.00065126,0.0,0 STARLINK-3880,1 52334U 22045D   22209.58334491 -.00065126  00000-0 -41069-2 0  9996,2 52334  53.2179  15.3109 0001745  48.1812 157.8931 15.08877719  1307,6917.765,95.435,540.837,538.423,0.0
52334.0,STARLINK-3880,PAYLOAD,2022-07-28 22:00:00,15.08806435,0.000185,53.2178,13.8157,40.6813,177.0123,0.0031434,0.00050049,0.0,0 STARLINK-3880,1 52334U 22045D   22209.91667824  .00050049  00000-0  31434-2 0  9993,2 52334  53.2178  13.8157 0001850  40.6813 177.0123 15.08806435  1301,6917.983,95.44,541.128,538.568,0.0
52334.0,STARLINK-3880,PAYLOAD,2022-07-29 00:00:00,15.08833326,0.0001809,53.2175,13.4409,40.5188,270.061,0.00010017,1.306e-05,0.0,0 STARLINK-3880,1 52334U 22045D   22210.00001157  .00001306  00000-0  10017-3 0  9993,2 52334  53.2175  13.4409 0001809  40.5188 270.0610 15.08833326 16403,6917.901,95.438,541.0169999999998,538.514,0.0
52334.0,STARLINK-3880,PAYLOAD,2022-07-29 14:00:01,15.08851848,0.0001695,53.2182,10.8219,47.1356,193.7132,-0.0014134,-0.00022719,0.0,0 STARLINK-3880,1 52334U 22045D   22210.58334491 -.00022719  00000-0 -14134-2 0  9992,2 52334  53.2182  10.8219 0001695  47.1356 193.7132 15.08851848  1306,6917.844,95.437,540.882,538.5369999999998,0.0
52334.0,STARLINK-3880,PAYLOAD,2022-07-29 22:00:00,15.08820667,0.0001827,53.2179,9.3267,41.7903,210.6599,0.0025541,0.00040573,0.0,0 STARLINK-3880,1 52334U 22045D   22210.91667824  .00040573  00000-0  25541-2 0  9998,2 52334  53.2179   9.3267 0001827  41.7903 210.6599 15.08820667  1304,6917.939,95.439,541.068,538.5409999999998,0.0
52334.0,STARLINK-3880,PAYLOAD,2022-07-30 06:00:00,15.08825405,0.0001626999999999,53.2181,7.8286,47.1836,216.8643,0.0019957,0.00031604,0.0,0 STARLINK-3880,1 52334U 22045D   22211.25001157  .00031604  00000-0  19957-2 0  9996,2 52334  53.2181   7.8286 0001627  47.1836 216.8643 15.08825405 16594,6917.925,95.438,540.9159999999998,538.664,0.0
52334.0,STARLINK-3880,PAYLOAD,2022-07-30 14:00:01,15.08862517,0.0001665999999999,53.2181,6.3331,47.7279,227.907,-0.00171,-0.00027416,0.0,0 STARLINK-3880,1 52334U 22045D   22211.58334491 -.00027416  00000-0 -17100-2 0  9998,2 52334  53.2181   6.3331 0001666  47.7279 227.9070 15.08862517  1304,6917.812,95.436,540.8290000000002,538.524,0.0
52334.0,STARLINK-3880,PAYLOAD,2022-07-30 22:00:00,15.08838237,0.000174,53.2177,4.8376,41.0643,246.1819,-0.00087655,-0.00014211,0.0,0 STARLINK-3880,1 52334U 22045D   22211.91667824 -.00014211  00000-0 -87655-3 0  9996,2 52334  53.2177   4.8376 0001740  41.0643 246.1819 15.08838237 16690,6917.886,95.438,540.9540000000002,538.547,0.0
52334.0,STARLINK-3880,PAYLOAD,2022-07-31 14:00:01,15.088412699999996,0.0001602,53.2178,1.8443,45.9737,264.4325,-0.0017138,-0.00027461,0.0,0 STARLINK-3880,1 52334U 22045D   22212.58334491 -.00027461  00000-0 -17138-2 0  9990,2 52334  53.2178   1.8443 0001602  45.9737 264.4325 15.08841270  1305,6917.877,95.437,540.85,538.633,0.0
52334.0,STARLINK-3880,PAYLOAD,2022-07-31 22:00:00,15.08819029,0.000171,53.2174,0.3488,40.7673,281.2233,0.0014162,0.0002230999999999,0.0,0 STARLINK-3880,1 52334U 22045D   22212.91667824  .00022310  00000-0  14162-2 0  9996,2 52334  53.2174   0.3488 0001710  40.7673 281.2233 15.08819029  1308,6917.944,95.439,540.992,538.627,0.0
52334.0,STARLINK-3880,PAYLOAD,2022-08-01 06:00:00,15.08809722,0.0001538,53.2174,358.8509,47.284,286.298,0.0028336,0.0004506,0.0,0 STARLINK-3880,1 52334U 22045D   22213.25001157  .00045060  00000-0  28336-2 0  9990,2 52334  53.2174 358.8509 0001538  47.2840 286.2980 15.08809722 16892,6917.973000000001,95.439,540.9019999999998,538.774,0.0
52334.0,STARLINK-3880,PAYLOAD,2022-08-01 14:00:01,15.08851653,0.0001654,53.2175,357.3557,46.2296,298.9269,-0.0016419,-0.00026332,0.0,0 STARLINK-3880,1 52334U 22045D   22213.58334491 -.00026332  00000-0 -16419-2 0  9998,2 52334  53.2175 357.3557 0001654  46.2296 298.9269 15.08851653  1303,6917.845,95.437,540.854,538.566,0.0
52334.0,STARLINK-3880,PAYLOAD,2022-08-01 22:00:00,15.0883479,0.0001746,53.2172,355.86,40.8905,315.8609,0.0010331,0.0001619,0.0,0 STARLINK-3880,1 52334U 22045D   22213.91667824  .00016190  00000-0  10331-2 0  9990,2 52334  53.2172 355.8600 0001746  40.8905 315.8609 15.08834790  1301,6917.896,95.438,540.969,538.553,0.0
52334.0,STARLINK-3880,PAYLOAD,2022-08-02 14:00:01,15.08863857,0.0001717,53.2174,352.8668,45.3521,334.5931,-0.0019297,-0.00030888,0.0,0 STARLINK-3880,1 52334U 22045D   22214.58334491 -.00030888  00000-0 -19297-2 0  9997,2 52334  53.2174 352.8668 0001717  45.3521 334.5931 15.08863857  1308,6917.807,95.436,540.86,538.485,0.0
52334.0,STARLINK-3880,PAYLOAD,2022-08-03 14:00:01,15.08841806,0.0001721999999999,53.2176,348.3779,41.9424,12.7804,-0.0015757,-0.00025279,0.0,0 STARLINK-3880,1 52334U 22045D   22215.58334491 -.00025279  00000-0 -15757-2 0  9993,2 52334  53.2176 348.3779 0001722  41.9424  12.7804 15.08841806 17247,6917.875,95.437,540.931,538.549,0.0
52334.0,STARLINK-3880,PAYLOAD,2022-08-03 22:00:01,15.08835814,0.0001792,53.2175,346.8818,37.668,28.7014,0.00030257,4.53e-05,0.0,0 STARLINK-3880,1 52334U 22045D   22215.91668981  .00004530  00000-0  30257-3 0  9992,2 52334  53.2175 346.8818 0001792  37.6680  28.7014 15.08835814  1308,6917.893,95.438,540.998,538.518,0.0
52334.0,STARLINK-3880,PAYLOAD,2022-08-04 06:00:00,15.08817274,0.000161,53.2178,345.3839,43.4953,34.4117,0.0030489999999999,0.00048541,0.0,0 STARLINK-3880,1 52334U 22045D   22216.25001157  .00048541  00000-0  30490-2 0  9994,2 52334  53.2178 345.3839 0001610  43.4953  34.4117 15.08817274 17344,6917.95,95.439,540.929,538.701,0.0
52334.0,STARLINK-3880,PAYLOAD,2022-08-04 14:00:01,15.08855657,0.0001797,53.2178,343.8889,42.0351,47.4587,-0.0014202,-0.00022829,0.0,0 STARLINK-3880,1 52334U 22045D   22216.58334491 -.00022829  00000-0 -14202-2 0  9996,2 52334  53.2178 343.8889 0001797  42.0351  47.4587 15.08855657  1306,6917.833000000001,95.437,540.941,538.4540000000002,0.0
52334.0,STARLINK-3880,PAYLOAD,2022-08-04 22:00:00,15.08865674,0.0001885999999999,53.2177,342.3927,39.6601,61.4338,-0.0030842,-0.00049074,0.0,0 STARLINK-3880,1 52334U 22045D   22216.91667824 -.00049074  00000-0 -30842-2 0  9991,2 52334  53.2177 342.3927 0001886  39.6601  61.4338 15.08865674 17443,6917.802,95.436,540.972,538.362,0.0
52334.0,STARLINK-3880,PAYLOAD,2022-08-05 14:00:01,15.08842624,0.0001899,53.2179,339.3998,44.4508,79.8965,-0.001194,-0.00019242,0.0,0 STARLINK-3880,1 52334U 22045D   22217.58335648 -.00019242  00000-0 -11940-2 0  9993,2 52334  53.2179 339.3998 0001899  44.4508  79.8965 15.08842624  1300,6917.871999999999,95.437,541.0509999999998,538.424,0.0
52334.0,STARLINK-3880,PAYLOAD,2022-08-05 22:00:00,15.08848306,0.0001919,53.2177,337.9034,42.0354,93.8361,-0.00062553,-0.00010232,0.0,0 STARLINK-3880,1 52334U 22045D   22217.91667824 -.00010232  00000-0 -62553-3 0  9991,2 52334  53.2177 337.9034 0001919  42.0354  93.8361 15.08848306  1308,6917.855,95.437,541.048,538.3919999999998,0.0
52334.0,STARLINK-3880,PAYLOAD,2022-08-06 06:00:00,15.08827509,0.0001721999999999,53.2179,336.4056,47.7675,99.7097,0.0025839,0.00041061,0.0,0 STARLINK-3880,1 52334U 22045D   22218.25001157  .00041061  00000-0  25839-2 0  9997,2 52334  53.2179 336.4056 0001722  47.7675  99.7097 15.08827509 17645,6917.919,95.438,540.975,538.592,0.0
52334.0,STARLINK-3880,PAYLOAD,2022-08-06 14:00:01,15.08865875,0.0001855999999999,53.2178,334.9108,43.7611,115.3126,-0.0030356,-0.00048311,0.0,0 STARLINK-3880,1 52334U 22045D   22218.58334491 -.00048311  00000-0 -30356-2 0  9990,2 52334  53.2178 334.9108 0001856  43.7611 115.3126 15.08865875  1301,6917.801,95.436,540.95,538.382,0.0
52334.0,STARLINK-3880,PAYLOAD,2022-08-06 22:00:00,15.08844574,0.0001803,53.2175,333.4141,40.1725,130.5054,-0.0017481999999999,-0.00028007,0.0,0 STARLINK-3880,1 52334U 22045D   22218.91667824 -.00028007  00000-0 -17482-2 0  9991,2 52334  53.2175 333.4141 0001803  40.1725 130.5054 15.08844574  1300,6917.866,95.437,540.979,538.484,0.0
